{"type": "FeatureCollection", "features": [ {"type": "Feature", "properties": {"norad_id": 32089, "name": "FENGYUN 1C DEB", "group": "fengyun-1c-debris", "lat": 25.064656791830284, "lon": 166.25755849097476, "alt_km": 764.0123843762549, "timestamp": "2025-12-02T06:27:53.298810+00:00", "meta": {"OBJECT_NAME": "FENGYUN 1C DEB", "OBJECT_ID": "1999-025CQF", "EPOCH": "2025-11-26T07:05:08.743776", "MEAN_MOTION": 14.1401839, "ECCENTRICITY": 0.01118311, "INCLINATION": 98.6554, "RA_OF_ASC_NODE": 336.3858, "ARG_OF_PERICENTER": 170.8108, "MEAN_ANOMALY": 189.5147, "EPHEMERIS_TYPE": 0, "CLASSIFICATION_TYPE": "U", "NORAD_CAT_ID": 32089, "ELEMENT_SET_NO": 999, "REV_AT_EPOCH": 62983, "BSTAR": 0.00062311827, "MEAN_MOTION_DOT": 1.215e-05, "MEAN_MOTION_DDOT": 0}, "tle": {"line1": "1 32089U 99025CQF 25330.29524009  .00001215  00000+0  62312-3 0  9996", "line2": "2 32089  98.6554 336.3858 0111831 170.8108 189.5147 14.14018390629831"}}, "geometry": {"type": "Point", "coordinates": [166.25755849097476, 25.064656791830284]}}, {"type": "Feature", "properties": {"norad_id": 32093, "name": "FENGYUN 1C DEB", "group": "fengyun-1c-debris", "lat": -65.10676423947515, "lon": -11.073881860505413, "alt_km": 815.7471943523342, "timestamp": "2025-12-02T06:27:53.298823+00:00", "meta": {"OBJECT_NAME": "FENGYUN 1C DEB", "OBJECT_ID": "1999-025CQK", "EPOCH": "2025-12-01T00:55:21.025920", "MEAN_MOTION": 14.37557083, "ECCENTRICITY": 0.00799288, "INCLINATION": 98.9208, "RA_OF_ASC_NODE": 187.4339, "ARG_OF_PERICENTER": 27.8676, "MEAN_ANOMALY": 332.6757, "EPHEMERIS_TYPE": 0, "CLASSIFICATION_TYPE": "U", "NORAD_CAT_ID": 32093, "ELEMENT_SET_NO": 999, "REV_AT_EPOCH": 96349, "BSTAR": 0.00043265006, "MEAN_MOTION_DOT": 1.297e-05, "MEAN_MOTION_DDOT": 0}, "tle": {"line1": "1 32093U 99025CQK 25335.03843780  .00001297  00000+0  43265-3 0  9994", "line2": "2 32093  98.9208 187.4339 0079928  27.8676 332.6757 14.37557083963498"}}, "geometry": {"type": "Point", "coordinates": [-11.073881860505413, -65.10676423947515]}}, {"type": "Feature", "properties": {"norad_id": 32094, "name": "FENGYUN 1C DEB", "group": "fengyun-1c-debris", "lat": -33.92414073497397, "lon": -27.09333629499344, "alt_km": 840.8598745468526, "timestamp": "2025-12-02T06:27:53.298834+00:00", "meta": {"OBJECT_NAME": "FENGYUN 1C DEB", "OBJECT_ID": "1999-025CQL", "EPOCH": "2025-11-30T22:17:03.492096", "MEAN_MOTION": 14.1070005, "ECCENTRICITY": 0.0034345, "INCLINATION": 98.7445, "RA_OF_ASC_NODE": 325.6602, "ARG_OF_PERICENTER": 302.9259, "MEAN_ANOMALY": 56.861, "EPHEMERIS_TYPE": 0, "CLASSIFICATION_TYPE": "U", "NORAD_CAT_ID": 32094, "ELEMENT_SET_NO": 999, "REV_AT_EPOCH": 94198, "BSTAR": 0.00042069701, "MEAN_MOTION_DOT": 7.13e-06, "MEAN_MOTION_DDOT": 0}, "tle": {"line1": "1 32094U 99025CQL 25334.92851264  .00000713  00000+0  42070-3 0  9993", "line2": "2 32094  98.7445 325.6602 0034345 302.9259  56.8610 14.10700050941985"}}, "geometry": {"type": "Point", "coordinates": [-27.09333629499344, -33.92414073497397]}}, {"type": "Feature", "properties": {"norad_id": 32095, "name": "FENGYUN 1C DEB", "group": "fengyun-1c-debris", "lat": -61.142095299377246, "lon": 8.216483350670108, "alt_km": 902.9340624662018, "timestamp": "2025-12-02T06:27:53.298844+00:00", "meta": {"OBJECT_NAME": "FENGYUN 1C DEB", "OBJECT_ID": "1999-025CQM", "EPOCH": "2025-12-01T18:53:30.579072", "MEAN_MOTION": 14.16020076, "ECCENTRICITY": 0.0079121, "INCLINATION": 98.6419, "RA_OF_ASC_NODE": 351.7287, "ARG_OF_PERICENTER": 123.2072, "MEAN_ANOMALY": 237.6721, "EPHEMERIS_TYPE": 0, "CLASSIFICATION_TYPE": "U", "NORAD_CAT_ID": 32095, "ELEMENT_SET_NO": 999, "REV_AT_EPOCH": 94662, "BSTAR": 0.00029755, "MEAN_MOTION_DOT": 5.63e-06, "MEAN_MOTION_DDOT": 0}, "tle": {"line1": "1 32095U 99025CQM 25335.78715948  .00000563  00000+0  29755-3 0  9995", "line2": "2 32095  98.6419 351.7287 0079121 123.2072 237.6721 14.16020076946620"}}, "geometry": {"type": "Point", "coordinates": [8.216483350670108, -61.142095299377246]}}, {"type": "Feature", "properties": {"norad_id": 32096, "name": "FENGYUN 1C DEB", "group": "fengyun-1c-debris", "lat": -17.996985364604363, "lon": 8.490865448860843, "alt_km": 1030.8464655044763, "timestamp": "2025-12-02T06:27:53.298854+00:00", "meta": {"OBJECT_NAME": "FENGYUN 1C DEB", "OBJECT_ID": "1999-025CQN", "EPOCH": "2025-12-01T13:16:49.852128", "MEAN_MOTION": 13.9013068, "ECCENTRICITY": 0.01346343, "INCLINATION": 99.0772, "RA_OF_ASC_NODE": 4.8151, "ARG_OF_PERICENTER": 170.0146, "MEAN_ANOMALY": 190.3736, "EPHEMERIS_TYPE": 0, "CLASSIFICATION_TYPE": "U", "NORAD_CAT_ID": 32096, "ELEMENT_SET_NO": 999, "REV_AT_EPOCH": 92706, "BSTAR": 0.0012264124, "MEAN_MOTION_DOT": 1.588e-05, "MEAN_MOTION_DDOT": 0}, "tle": {"line1": "1 32096U 99025CQN 25335.55335477  .00001588  00000+0  12264-2 0  9990", "line2": "2 32096  99.0772   4.8151 0134634 170.0146 190.3736 13.90130680927069"}}, "geometry": {"type": "Point", "coordinates": [8.490865448860843, -17.996985364604363]}}, {"type": "Feature", "properties": {"norad_id": 32098, "name": "FENGYUN 1C DEB", "group": "fengyun-1c-debris", "lat": -29.944904337761297, "lon": -26.008216970470812, "alt_km": 971.241215741572, "timestamp": "2025-12-02T06:27:53.298864+00:00", "meta": {"OBJECT_NAME": "FENGYUN 1C DEB", "OBJECT_ID": "1999-025CQQ", "EPOCH": "2025-11-29T05:54:21.217824", "MEAN_MOTION": 14.20229965, "ECCENTRICITY": 0.01954302, "INCLINATION": 98.6126, "RA_OF_ASC_NODE": 326.0376, "ARG_OF_PERICENTER": 158.6882, "MEAN_ANOMALY": 202.2577, "EPHEMERIS_TYPE": 0, "CLASSIFICATION_TYPE": "U", "NORAD_CAT_ID": 32098, "ELEMENT_SET_NO": 999, "REV_AT_EPOCH": 64036, "BSTAR": 0.00026691948, "MEAN_MOTION_DOT": 6.47e-06, "MEAN_MOTION_DDOT": 0}, "tle": {"line1": "1 32098U 99025CQQ 25333.24607891  .00000647  00000+0  26692-3 0  9994", "line2": "2 32098  98.6126 326.0376 0195430 158.6882 202.2577 14.20229965640367"}}, "geometry": {"type": "Point", "coordinates": [-26.008216970470812, -29.944904337761297]}}, {"type": "Feature", "properties": {"norad_id": 32099, "name": "FENGYUN 1C DEB", "group": "fengyun-1c-debris", "lat": 81.15314974468568, "lon": -120.12283136587048, "alt_km": 1111.5038599770005, "timestamp": "2025-12-02T06:27:53.298874+00:00", "meta": {"OBJECT_NAME": "FENGYUN 1C DEB", "OBJECT_ID": "1999-025CQR", "EPOCH": "2025-11-27T03:48:43.153920", "MEAN_MOTION": 13.91631164, "ECCENTRICITY": 0.03440813, "INCLINATION": 98.2802, "RA_OF_ASC_NODE": 304.6284, "ARG_OF_PERICENTER": 318.5691, "MEAN_ANOMALY": 96.6338, "EPHEMERIS_TYPE": 0, "CLASSIFICATION_TYPE": "U", "NORAD_CAT_ID": 32099, "ELEMENT_SET_NO": 999, "REV_AT_EPOCH": 64471, "BSTAR": 0.0019258302, "MEAN_MOTION_DOT": 3.922e-05, "MEAN_MOTION_DDOT": 0}, "tle": {"line1": "1 32099U 99025CQR 25331.15883280  .00003922  00000+0  19258-2 0  9999", "line2": "2 32099  98.2802 304.6284 0344081 318.5691  96.6338 13.91631164644716"}}, "geometry": {"type": "Point", "coordinates": [-120.12283136587048, 81.15314974468568]}}, {"type": "Feature", "properties": {"norad_id": 32101, "name": "FENGYUN 1C DEB", "group": "fengyun-1c-debris", "lat": 24.051917693848964, "lon": 59.49868672114567, "alt_km": 920.8463926053664, "timestamp": "2025-12-02T06:27:53.298884+00:00", "meta": {"OBJECT_NAME": "FENGYUN 1C DEB", "OBJECT_ID": "1999-025CQT", "EPOCH": "2025-11-28T10:54:15.516864", "MEAN_MOTION": 14.01511552, "ECCENTRICITY": 0.01222368, "INCLINATION": 99.03, "RA_OF_ASC_NODE": 231.6536, "ARG_OF_PERICENTER": 278.569, "MEAN_ANOMALY": 80.164, "EPHEMERIS_TYPE": 0, "CLASSIFICATION_TYPE": "U", "NORAD_CAT_ID": 32101, "ELEMENT_SET_NO": 999, "REV_AT_EPOCH": 92982, "BSTAR": 0.0021958855, "MEAN_MOTION_DOT": 3.499e-05, "MEAN_MOTION_DDOT": 0}, "tle": {"line1": "1 32101U 99025CQT 25332.45434626  .00003499  00000+0  21959-2 0  9993", "line2": "2 32101  99.0300 231.6536 0122236 278.5690  80.1640 14.01511552929823"}}, "geometry": {"type": "Point", "coordinates": [59.49868672114567, 24.051917693848964]}}, {"type": "Feature", "properties": {"norad_id": 32105, "name": "FENGYUN 1C DEB", "group": "fengyun-1c-debris", "lat": -68.1308528021432, "lon": 107.68944455066443, "alt_km": 1381.5649633711973, "timestamp": "2025-12-02T06:27:53.298893+00:00", "meta": {"OBJECT_NAME": "FENGYUN 1C DEB", "OBJECT_ID": "1999-025CQX", "EPOCH": "2025-11-28T04:29:43.050912", "MEAN_MOTION": 13.40179437, "ECCENTRICITY": 0.03936416, "INCLINATION": 103.4627, "RA_OF_ASC_NODE": 318.9152, "ARG_OF_PERICENTER": 105.6195, "MEAN_ANOMALY": 258.8715, "EPHEMERIS_TYPE": 0, "CLASSIFICATION_TYPE": "U", "NORAD_CAT_ID": 32105, "ELEMENT_SET_NO": 999, "REV_AT_EPOCH": 59516, "BSTAR": 0.0026659689, "MEAN_MOTION_DOT": 2.224e-05, "MEAN_MOTION_DDOT": 0}, "tle": {"line1": "1 32105U 99025CQX 25332.18730383  .00002224  00000+0  26660-2 0  9995", "line2": "2 32105 103.4627 318.9152 0393641 105.6195 258.8715 13.40179437595169"}}, "geometry": {"type": "Point", "coordinates": [107.68944455066443, -68.1308528021432]}}, {"type": "Feature", "properties": {"norad_id": 32106, "name": "FENGYUN 1C DEB", "group": "fengyun-1c-debris", "lat": 12.872739663129394, "lon": 127.1061306492826, "alt_km": 813.1562062533003, "timestamp": "2025-12-02T06:27:53.298903+00:00", "meta": {"OBJECT_NAME": "FENGYUN 1C DEB", "OBJECT_ID": "1999-025CQY", "EPOCH": "2025-12-01T04:26:59.805888", "MEAN_MOTION": 14.26624695, "ECCENTRICITY": 0.01094883, "INCLINATION": 101.4616, "RA_OF_ASC_NODE": 303.0332, "ARG_OF_PERICENTER": 72.2765, "MEAN_ANOMALY": 289.032, "EPHEMERIS_TYPE": 0, "CLASSIFICATION_TYPE": "U", "NORAD_CAT_ID": 32106, "ELEMENT_SET_NO": 999, "REV_AT_EPOCH": 69227, "BSTAR": 0.0038557998, "MEAN_MOTION_DOT": 9.872e-05, "MEAN_MOTION_DDOT": 0}, "tle": {"line1": "1 32106U 99025CQY 25335.18541442  .00009872  00000+0  38558-2 0  9990", "line2": "2 32106 101.4616 303.0332 0109488  72.2765 289.0320 14.26624695692271"}}, "geometry": {"type": "Point", "coordinates": [127.1061306492826, 12.872739663129394]}}]}